ONEWEB-0275             
1 48993U 21060AC  25008.39441898 -.00000287  00000+0 -78470-3 0  9990
2 48993  87.9103 333.3402 0001662  83.9087 276.2233 13.16589092170503
ONEWEB-0276             
1 48994U 21060AD  25008.42768586  .00000125  00000+0  29397-3 0  9994
2 48994  87.9106 333.3303 0001649  91.1370 268.9950 13.16592320170522
ONEWEB-0277             
1 48995U 21060AE  25008.44033340  .00000096  00000+0  21873-3 0  9998
2 48995  87.9108 333.3651 0001355  90.3270 269.8016 13.16592477170510
ONEWEB-0278             
1 48996U 21060AF  25008.43083754  .00000085  00000+0  18867-3 0  9999
2 48996  87.9107 333.3265 0002011  86.8748 273.2613 13.16592719170646
ONEWEB-0279             
1 48997U 21060AG  25008.43875295 -.00003194  00000+0 -83932-2 0  9999
2 48997  87.9106 333.3216 0001404  82.8219 277.3071 13.16588904170572
ONEWEB-0280             
1 48998U 21060AH  25008.45382689 -.00004056  00000+0 -10652-1 0  9998
2 48998  87.9099 333.3226 0002057  87.6567 272.4799 13.16565116170516
ONEWEB-0281             
1 48999U 21060AJ  25008.38334363  .00000070  00000+0  14928-3 0  9999
2 48999  87.9105 333.3364 0001770  77.2145 282.9183 13.16593574170574
ONEWEB-0282             
1 49000U 21060AK  25008.41341167  .00000098  00000+0  22387-3 0  9995
2 49000  87.9105 333.3472 0001614  90.9673 269.1642 13.16596997170550
